{"type": "FeatureCollection", "features": [{"type": "Feature", "properties": {"project_id": "PRJ-001", "alignment_id": "ALN-1", "label": "Alignment A (shorter, more parcels)"}, "geometry": {"type": "LineString", "coordinates": [[77.920185, 22.821448], [77.930385, 22.837902], [77.941686, 22.851923], [77.953541, 22.868611], [77.972858, 22.882657], [77.991593, 22.899795]]}}, {"type": "Feature", "properties": {"project_id": "PRJ-001", "alignment_id": "ALN-2", "label": "Alignment B (longer, avoids forest)"}, "geometry": {"type": "LineString", "coordinates": [[77.894453, 22.829971], [77.879923, 22.844245], [77.862233, 22.854278], [77.851708, 22.870342], [77.841307, 22.887729], [77.821319, 22.902863]]}}]}